{
  "type": "FeatureCollection",
  "features": [
    {
      "type": "Feature",
      "properties": {
        "norad_id": 34079,
        "name": "IRIDIUM 33 DEB",
        "group": "iridium-33-debris",
        "lat": -40.554725642176884,
        "lon": -169.8228284228375,
        "alt_km": 627.2086050402713,
        "timestamp": "2025-12-16T05:49:09.598461+00:00",
        "meta_object_name": "IRIDIUM 33 DEB",
        "meta_object_id": "1997-051CN",
        "meta_epoch": "2025-12-15T22:33:58.629888",
        "meta_mean_motion": 14.8361528,
        "meta_eccentricity": 0.00052431,
        "meta_inclination": 86.3777,
        "meta_ra_of_asc_node": 7.2071,
        "meta_arg_of_pericenter": 357.5343,
        "meta_mean_anomaly": 50.0154,
        "meta_ephemeris_type": 0,
        "meta_classification_type": "U",
        "meta_norad_cat_id": 34079,
        "meta_element_set_no": 999,
        "meta_rev_at_epoch": 89025,
        "meta_bstar": 0.0012456389,
        "meta_mean_motion_dot": 0.00010303,
        "meta_mean_motion_ddot": 0,
        "tle_line1": "1 34079U 97051CN  25349.94026192  .00010303  00000+0  12456-2 0  9997",
        "tle_line2": "2 34079  86.3777   7.2071 0005243 357.5343  50.0154 14.83615280890251"
      },
      "geometry": {
        "type": "Point",
        "coordinates": [
          -169.8228284228375,
          -40.554725642176884
        ]
      }
    },
    {
      "type": "Feature",
      "properties": {
        "norad_id": 34088,
        "name": "IRIDIUM 33 DEB",
        "group": "iridium-33-debris",
        "lat": 51.10576175308847,
        "lon": 33.609478957508024,
        "alt_km": 590.1732515394297,
        "timestamp": "2025-12-16T05:49:09.598471+00:00",
        "meta_object_name": "IRIDIUM 33 DEB",
        "meta_object_id": "1997-051CX",
        "meta_epoch": "2025-12-15T20:42:59.185728",
        "meta_mean_motion": 14.9153623,
        "meta_eccentricity": 0.00061215,
        "meta_inclination": 86.3851,
        "meta_ra_of_asc_node": 29.2892,
        "meta_arg_of_pericenter": 165.6591,
        "meta_mean_anomaly": 10.478,
        "meta_ephemeris_type": 0,
        "meta_classification_type": "U",
        "meta_norad_cat_id": 34088,
        "meta_element_set_no": 999,
        "meta_rev_at_epoch": 88788,
        "meta_bstar": 0.0014745475,
        "meta_mean_motion_dot": 0.00014815,
        "meta_mean_motion_ddot": 0,
        "tle_line1": "1 34088U 97051CX  25349.86318502  .00014815  00000+0  14745-2 0  9992",
        "tle_line2": "2 34088  86.3851  29.2892 0006121 165.6591  10.4780 14.91536230887884"
      },
      "geometry": {
        "type": "Point",
        "coordinates": [
          33.609478957508024,
          51.10576175308847
        ]
      }
    },
    {
      "type": "Feature",
      "properties": {
        "norad_id": 34091,
        "name": "IRIDIUM 33 DEB",
        "group": "iridium-33-debris",
        "lat": 62.567259444455814,
        "lon": -121.85027858083609,
        "alt_km": 639.2000279301865,
        "timestamp": "2025-12-16T05:49:09.598482+00:00",
        "meta_object_name": "IRIDIUM 33 DEB",
        "meta_object_id": "1997-051DA",
        "meta_epoch": "2025-12-15T11:27:56.316096",
        "meta_mean_motion": 14.8204835,
        "meta_eccentricity": 0.00334632,
        "meta_inclination": 86.3419,
        "meta_ra_of_asc_node": 65.5797,
        "meta_arg_of_pericenter": 283.2585,
        "meta_mean_anomaly": 76.4905,
        "meta_ephemeris_type": 0,
        "meta_classification_type": "U",
        "meta_norad_cat_id": 34091,
        "meta_element_set_no": 999,
        "meta_rev_at_epoch": 87907,
        "meta_bstar": 0.002992099,
        "meta_mean_motion_dot": 0.00024071,
        "meta_mean_motion_ddot": 0,
        "tle_line1": "1 34091U 97051DA  25349.47773514  .00024071  00000+0  29921-2 0  9998",
        "tle_line2": "2 34091  86.3419  65.5797 0033463 283.2585  76.4905 14.82048350879078"
      },
      "geometry": {
        "type": "Point",
        "coordinates": [
          -121.85027858083609,
          62.567259444455814
        ]
      }
    },
    {
      "type": "Feature",
      "properties": {
        "norad_id": 34097,
        "name": "IRIDIUM 33 DEB",
        "group": "iridium-33-debris",
        "lat": 47.76449273693446,
        "lon": 175.6653519633134,
        "alt_km": 817.2543488948168,
        "timestamp": "2025-12-16T05:49:09.598492+00:00",
        "meta_object_name": "IRIDIUM 33 DEB",
        "meta_object_id": "1997-051DG",
        "meta_epoch": "2025-12-15T10:47:49.120512",
        "meta_mean_motion": 14.34801497,
        "meta_eccentricity": 0.00822859,
        "meta_inclination": 86.2009,
        "meta_ra_of_asc_node": 0.2122,
        "meta_arg_of_pericenter": 353.363,
        "meta_mean_anomaly": 6.6468,
        "meta_ephemeris_type": 0,
        "meta_classification_type": "U",
        "meta_norad_cat_id": 34097,
        "meta_element_set_no": 999,
        "meta_rev_at_epoch": 87158,
        "meta_bstar": 0.0011004394,
        "meta_mean_motion_dot": 3.26e-05,
        "meta_mean_motion_ddot": 0,
        "tle_line1": "1 34097U 97051DG  25349.44987408  .00003260  00000+0  11004-2 0  9990",
        "tle_line2": "2 34097  86.2009   0.2122 0082285 353.3630   6.6468 14.34801497871585"
      },
      "geometry": {
        "type": "Point",
        "coordinates": [
          175.6653519633134,
          47.76449273693446
        ]
      }
    },
    {
      "type": "Feature",
      "properties": {
        "norad_id": 34145,
        "name": "IRIDIUM 33 DEB",
        "group": "iridium-33-debris",
        "lat": 44.03037365968263,
        "lon": 147.29445521556124,
        "alt_km": 723.218771514139,
        "timestamp": "2025-12-16T05:49:09.598503+00:00",
        "meta_object_name": "IRIDIUM 33 DEB",
        "meta_object_id": "1997-051DY",
        "meta_epoch": "2025-12-15T22:32:13.316064",
        "meta_mean_motion": 14.42312894,
        "meta_eccentricity": 0.00557785,
        "meta_inclination": 86.2114,
        "meta_ra_of_asc_node": 331.1023,
        "meta_arg_of_pericenter": 83.6538,
        "meta_mean_anomaly": 277.1011,
        "meta_ephemeris_type": 0,
        "meta_classification_type": "U",
        "meta_norad_cat_id": 34145,
        "meta_element_set_no": 999,
        "meta_rev_at_epoch": 87684,
        "meta_bstar": 0.0008179063,
        "meta_mean_motion_dot": 2.77e-05,
        "meta_mean_motion_ddot": 0,
        "tle_line1": "1 34145U 97051DY  25349.93904301  .00002770  00000+0  81791-3 0  9995",
        "tle_line2": "2 34145  86.2114 331.1023 0055778  83.6538 277.1011 14.42312894876849"
      },
      "geometry": {
        "type": "Point",
        "coordinates": [
          147.29445521556124,
          44.03037365968263
        ]
      }
    },
    {
      "type": "Feature",
      "properties": {
        "norad_id": 34146,
        "name": "IRIDIUM 33 DEB",
        "group": "iridium-33-debris",
        "lat": -38.06941057186426,
        "lon": 171.17177265803926,
        "alt_km": 717.0729987985478,
        "timestamp": "2025-12-16T05:49:09.598513+00:00",
        "meta_object_name": "IRIDIUM 33 DEB",
        "meta_object_id": "1997-051DZ",
        "meta_epoch": "2025-12-15T18:01:50.948832",
        "meta_mean_motion": 14.49071042,
        "meta_eccentricity": 0.00257744,
        "meta_inclination": 86.2835,
        "meta_ra_of_asc_node": 348.4705,
        "meta_arg_of_pericenter": 211.0243,
        "meta_mean_anomaly": 326.273,
        "meta_ephemeris_type": 0,
        "meta_classification_type": "U",
        "meta_norad_cat_id": 34146,
        "meta_element_set_no": 999,
        "meta_rev_at_epoch": 88150,
        "meta_bstar": 0.00065889946,
        "meta_mean_motion_dot": 2.531e-05,
        "meta_mean_motion_ddot": 0,
        "tle_line1": "1 34146U 97051DZ  25349.75128413  .00002531  00000+0  65890-3 0  9995",
        "tle_line2": "2 34146  86.2835 348.4705 0025774 211.0243 326.2730 14.49071042881508"
      },
      "geometry": {
        "type": "Point",
        "coordinates": [
          171.17177265803926,
          -38.06941057186426
        ]
      }
    },
    {
      "type": "Feature",
      "properties": {
        "norad_id": 34159,
        "name": "IRIDIUM 33 DEB",
        "group": "iridium-33-debris",
        "lat": 20.282658572527033,
        "lon": -134.60346751921577,
        "alt_km": 771.6286222428553,
        "timestamp": "2025-12-16T05:49:09.598524+00:00",
        "meta_object_name": "IRIDIUM 33 DEB",
        "meta_object_id": "1997-051EN",
        "meta_epoch": "2025-12-15T14:03:07.774560",
        "meta_mean_motion": 14.38501261,
        "meta_eccentricity": 0.00259753,
        "meta_inclination": 86.3506,
        "meta_ra_of_asc_node": 47.0281,
        "meta_arg_of_pericenter": 277.6938,
        "meta_mean_anomaly": 82.131,
        "meta_ephemeris_type": 0,
        "meta_classification_type": "U",
        "meta_norad_cat_id": 34159,
        "meta_element_set_no": 999,
        "meta_rev_at_epoch": 88000,
        "meta_bstar": 0.00040050586,
        "meta_mean_motion_dot": 1.247e-05,
        "meta_mean_motion_ddot": 0,
        "tle_line1": "1 34159U 97051EN  25349.58550665  .00001247  00000+0  40051-3 0  9993",
        "tle_line2": "2 34159  86.3506  47.0281 0025975 277.6938  82.1310 14.38501261880006"
      },
      "geometry": {
        "type": "Point",
        "coordinates": [
          -134.60346751921577,
          20.282658572527033
        ]
      }
    }
  ]
}